{
"type": "FeatureCollection",
"name": "dnipro_kyiv_simplified",
"crs": { "type": "name", "properties": { "name": "urn:ogc:def:crs:OGC:1.3:CRS84" } },
"features": [
{ "type": "Feature", "properties": { "element": "relation", "id": 66386 }, "geometry": { "type": "Polygon", "coordinates": [ [ [ 30.5567904, 50.4874584 ], [ 30.5445564, 50.4985393 ], [ 30.5480687, 50.4967069 ], [ 30.5511466, 50.4986724 ], [ 30.5488899, 50.5034508 ], [ 30.549847, 50.5091913 ], [ 30.5521375, 50.5122439 ], [ 30.562305, 50.514118 ], [ 30.5649574, 50.5176429 ], [ 30.5640963, 50.5194947 ], [ 30.5586702, 50.5189387 ], [ 30.5594461, 50.5213658 ], [ 30.5639179, 50.522265 ], [ 30.5581672, 50.5223733 ], [ 30.5537215, 50.525545 ], [ 30.5549151, 50.5272553 ], [ 30.5588928, 50.5259466 ], [ 30.5508569, 50.5337317 ], [ 30.5568959, 50.5456098 ], [ 30.5574793, 50.543185099999988 ], [ 30.5583912, 50.5453788 ], [ 30.5616876, 50.5444209 ], [ 30.5526161, 50.5342851 ], [ 30.5541621, 50.530634 ], [ 30.5679784, 50.5209726 ], [ 30.5642976, 50.513534699999987 ], [ 30.5669165, 50.5077879 ], [ 30.5685298, 50.509235 ], [ 30.569198, 50.5091627 ], [ 30.5684952, 50.4983699 ], [ 30.5629836, 50.49635 ], [ 30.555732, 50.5003835 ], [ 30.5552155, 50.4942175 ], [ 30.5580715, 50.4896166 ], [ 30.5634215, 50.4938919 ], [ 30.5682596, 50.4941051 ], [ 30.5692015, 50.4894546 ], [ 30.5566725, 50.4848109 ], [ 30.55469, 50.48012150000001 ], [ 30.5571625, 50.4777579 ], [ 30.5545009, 50.4785692 ], [ 30.553943, 50.4758108 ], [ 30.5659145, 50.4636657 ], [ 30.5725893, 50.4486804 ], [ 30.5687706, 50.4487501 ], [ 30.5700158, 50.4514045 ], [ 30.5627176, 50.4625839 ], [ 30.5518278, 50.4719142 ], [ 30.5506188, 50.4835702 ], [ 30.5567904, 50.4874584 ] ], [ [ 30.5576323, 50.5007586 ], [ 30.5580545, 50.5010471 ], [ 30.557053, 50.5008453 ], [ 30.5576323, 50.5007586 ] ], [ [ 30.549293, 50.5032174 ], [ 30.5503577, 50.5024137 ], [ 30.549499, 50.5041618 ], [ 30.549293, 50.5032174 ] ], [ [ 30.5639844, 50.5078756 ], [ 30.5555408, 50.5062789 ], [ 30.5541353, 50.5036723 ], [ 30.5538349, 50.5087149 ], [ 30.561034, 50.509240199999986 ], [ 30.562021, 50.5127472 ], [ 30.553159, 50.5103456 ], [ 30.5506485, 50.5080052 ], [ 30.5526226, 50.5001579 ], [ 30.5616563, 50.5028603 ], [ 30.5570429, 50.50237580000001 ], [ 30.5561846, 50.5040271 ], [ 30.5639844, 50.5078756 ] ], [ [ 30.559397, 50.544588 ], [ 30.5588472, 50.5448198 ], [ 30.5582786, 50.5433351 ], [ 30.559397, 50.544588 ] ] ] } },
{ "type": "Feature", "properties": { "element": "relation", "id": 66398 }, "geometry": { "type": "Polygon", "coordinates": [ [ [ 30.4876838, 50.5330547 ], [ 30.4874672, 50.5393266 ], [ 30.4951808, 50.536803 ], [ 30.4985779, 50.539919099999985 ], [ 30.4952279, 50.5363512 ], [ 30.5002605, 50.5344946 ], [ 30.5061505, 50.5373191 ], [ 30.5130457, 50.5354679 ], [ 30.5271801, 50.5375497 ], [ 30.502062, 50.5470738 ], [ 30.495738, 50.551972 ], [ 30.4910627, 50.5608085 ], [ 30.4922855, 50.5736226 ], [ 30.5052841, 50.5889846 ], [ 30.5016491, 50.5787879 ], [ 30.4941067, 50.5709736 ], [ 30.5038163, 50.5763659 ], [ 30.5103488, 50.58861120000001 ], [ 30.5140637, 50.587767499999984 ], [ 30.5155858, 50.5809016 ], [ 30.5185296, 50.5849503 ], [ 30.5252337, 50.5846025 ], [ 30.5282781, 50.5819525 ], [ 30.530232, 50.5727742 ], [ 30.5263978, 50.5693748 ], [ 30.5300919, 50.5652328 ], [ 30.5402166, 50.571453199999979 ], [ 30.5372232, 50.5783902 ], [ 30.5335137, 50.5795399 ], [ 30.536157, 50.5841197 ], [ 30.5376255, 50.58264650000001 ], [ 30.5438771, 50.5838796 ], [ 30.5386019, 50.5770182 ], [ 30.543525, 50.569745399999988 ], [ 30.5298927, 50.56302860000001 ], [ 30.5371656, 50.5574508 ], [ 30.5389935, 50.5524663 ], [ 30.5381405, 50.5492239 ], [ 30.5304614, 50.5454606 ], [ 30.5310032, 50.5419545 ], [ 30.5377945, 50.5372121 ], [ 30.5348387, 50.5442641 ], [ 30.5373052, 50.54332440000001 ], [ 30.5392886, 50.5451534 ], [ 30.5382907, 50.5361006 ], [ 30.5431133, 50.5314497 ], [ 30.542368, 50.5347899 ], [ 30.5443496, 50.5301251 ], [ 30.5339885, 50.5110693 ], [ 30.5348361, 50.4993259 ], [ 30.5460826, 50.483436700000013 ], [ 30.5430061, 50.4766188 ], [ 30.5322772, 50.4672143 ], [ 30.5322598, 50.4630492 ], [ 30.5371656, 50.4569567 ], [ 30.5448554, 50.4558237 ], [ 30.5600274, 50.4476192 ], [ 30.546825, 50.458633 ], [ 30.551331, 50.4590336 ], [ 30.5470763, 50.4637911 ], [ 30.5493803, 50.4644723 ], [ 30.5666315, 50.4478885 ], [ 30.5726485, 50.4382436 ], [ 30.5860697, 50.4278811 ], [ 30.5909666, 50.4298973 ], [ 30.5908754, 50.421548199999989 ], [ 30.5990025, 50.4077927 ], [ 30.6041993, 50.4079235 ], [ 30.6139827, 50.403233899999989 ], [ 30.5990495, 50.405607199999984 ], [ 30.5987558, 50.4013786 ], [ 30.6039914, 50.398867 ], [ 30.5980986, 50.3995321 ], [ 30.5964772, 50.3947771 ], [ 30.5814958, 50.395479 ], [ 30.5809647, 50.4025411 ], [ 30.5754796, 50.4021342 ], [ 30.5808279, 50.4043481 ], [ 30.5800976, 50.4140298 ], [ 30.5702332, 50.421271299999987 ], [ 30.5715984, 50.422773499999984 ], [ 30.5733646, 50.422747 ], [ 30.573201, 50.4236219 ], [ 30.5618137, 50.4396457 ], [ 30.5540058, 50.4460854 ], [ 30.5273251, 50.4593522 ], [ 30.5252954, 50.4673876 ], [ 30.5353148, 50.475732 ], [ 30.5383294, 50.483655099999986 ], [ 30.5296551, 50.486248 ], [ 30.5332635, 50.4898168 ], [ 30.5274466, 50.4929036 ], [ 30.5276883, 50.4962442 ], [ 30.5296204, 50.4952606 ], [ 30.5235171, 50.501115499999983 ], [ 30.5163248, 50.5039023 ], [ 30.5138102, 50.5099435 ], [ 30.5185128, 50.5152366 ], [ 30.5187106, 50.5150072 ], [ 30.5193141, 50.5150212 ], [ 30.520149, 50.5149302 ], [ 30.520336, 50.5148635 ], [ 30.522986, 50.5124565 ], [ 30.5251533, 50.5134623 ], [ 30.5203468, 50.5287404 ], [ 30.521187, 50.5296437 ], [ 30.5257863, 50.5316543 ], [ 30.5229293, 50.5298077 ], [ 30.5300027, 50.5307904 ], [ 30.5303997, 50.5238108 ], [ 30.5254027, 50.5156745 ], [ 30.5305519, 50.5194564 ], [ 30.53482, 50.527141 ], [ 30.5329816, 50.5340168 ], [ 30.5279036, 50.537258 ], [ 30.5129533, 50.53295 ], [ 30.4876838, 50.5330547 ] ], [ [ 30.5305217, 50.4996534 ], [ 30.5302455, 50.4996423 ], [ 30.5304359, 50.4995681 ], [ 30.5305217, 50.4996534 ] ], [ [ 30.5306599, 50.4999639 ], [ 30.5302602, 50.4999946 ], [ 30.5304801, 50.4998565 ], [ 30.5306599, 50.4999639 ] ], [ [ 30.5302213, 50.5029316 ], [ 30.5307081, 50.5085687 ], [ 30.5277899, 50.5030826 ], [ 30.5297184, 50.499662 ], [ 30.5302213, 50.5029316 ] ], [ [ 30.5234098, 50.5118318 ], [ 30.5192924, 50.5091513 ], [ 30.5222055, 50.502958 ], [ 30.5234098, 50.5118318 ] ], [ [ 30.5202604, 50.5148811 ], [ 30.5191954, 50.5149882 ], [ 30.5197464, 50.5147354 ], [ 30.5202604, 50.5148811 ] ], [ [ 30.5232215, 50.5295072 ], [ 30.5209733, 50.5290727 ], [ 30.5210186, 50.5284857 ], [ 30.5232215, 50.5295072 ] ], [ [ 30.5142072, 50.5742196 ], [ 30.4997259, 50.5652776 ], [ 30.4991922, 50.5586649 ], [ 30.506461, 50.5510833 ], [ 30.5157106, 50.5510432 ], [ 30.5057581, 50.555128899999985 ], [ 30.5023799, 50.5593986 ], [ 30.5057456, 50.5567943 ], [ 30.5078025, 50.5623288 ], [ 30.5177035, 50.5670746 ], [ 30.5205317, 50.5637125 ], [ 30.5196795, 50.5522123 ], [ 30.5293778, 50.5489973 ], [ 30.5246314, 50.5520236 ], [ 30.531038, 50.5496798 ], [ 30.5348863, 50.5537487 ], [ 30.520442, 50.5723475 ], [ 30.5142072, 50.5742196 ] ], [ [ 30.5296084, 50.5726933 ], [ 30.523387, 50.579853300000011 ], [ 30.5263334, 50.570891 ], [ 30.5296084, 50.5726933 ] ], [ [ 30.5195582, 50.577255 ], [ 30.5193195, 50.5757578 ], [ 30.5206257, 50.5747886 ], [ 30.5217951, 50.5760218 ], [ 30.5195582, 50.577255 ] ], [ [ 30.5190901, 50.5829037 ], [ 30.5189124, 50.5829071 ], [ 30.5189661, 50.5828194 ], [ 30.5190901, 50.5829037 ] ], [ [ 30.5884671, 50.3978928 ], [ 30.588085, 50.3987046 ], [ 30.5879674, 50.3980645 ], [ 30.5884671, 50.3978928 ] ], [ [ 30.5905739, 50.395154399999988 ], [ 30.5912318, 50.4089576 ], [ 30.5894324, 50.412285 ], [ 30.5905739, 50.395154399999988 ] ], [ [ 30.5840464, 50.416972299999983 ], [ 30.5832905, 50.4145628 ], [ 30.5883683, 50.4156888 ], [ 30.5859028, 50.420671799999987 ], [ 30.5849515, 50.4211963 ], [ 30.5870295, 50.4166478 ], [ 30.5840464, 50.416972299999983 ] ], [ [ 30.5713114, 50.422211199999985 ], [ 30.5710122, 50.421549 ], [ 30.5715004, 50.4221488 ], [ 30.5713114, 50.422211199999985 ] ], [ [ 30.5844127, 50.4241354 ], [ 30.5839942, 50.4215063 ], [ 30.5850805, 50.42144050000001 ], [ 30.5844127, 50.4241354 ] ], [ [ 30.5317663, 50.4985479 ], [ 30.53135, 50.4985684 ], [ 30.5316536, 50.4984019 ], [ 30.5317663, 50.4985479 ] ], [ [ 30.5326113, 50.5029918 ], [ 30.5328217, 50.5030844 ], [ 30.5327954, 50.5032194 ], [ 30.5326113, 50.5029918 ] ], [ [ 30.5323941, 50.5055232 ], [ 30.5318349, 50.5033569 ], [ 30.5325622, 50.5031803 ], [ 30.5327646, 50.5032813 ], [ 30.5323941, 50.5055232 ] ], [ [ 30.5395178, 50.5820308 ], [ 30.539652, 50.582575 ], [ 30.5390029, 50.582015499999983 ], [ 30.5395178, 50.5820308 ] ] ] } },
{ "type": "Feature", "properties": { "element": "relation", "id": 1642327 }, "geometry": { "type": "Polygon", "coordinates": [ [ [ 30.5707911, 50.3592391 ], [ 30.5748036, 50.3693562 ], [ 30.5719961, 50.3715517 ], [ 30.5761407, 50.3723081 ], [ 30.578662, 50.376427299999989 ], [ 30.581131, 50.3905809 ], [ 30.5720712, 50.3935988 ], [ 30.5807286, 50.392231 ], [ 30.5814958, 50.395479 ], [ 30.5964772, 50.3947771 ], [ 30.5883235, 50.3761771 ], [ 30.5907413, 50.3618691 ], [ 30.5969198, 50.3535064 ], [ 30.6147606, 50.3392582 ], [ 30.6069627, 50.348754 ], [ 30.6134382, 50.3444103 ], [ 30.6265998, 50.3290204 ], [ 30.6305923, 50.3193143 ], [ 30.621306, 50.3200758 ], [ 30.6187383, 50.3269526 ], [ 30.6013675, 50.3400791 ], [ 30.5940592, 50.3421311 ], [ 30.5976252, 50.3391148 ], [ 30.5912067, 50.339908299999983 ], [ 30.5926725, 50.3420926 ], [ 30.5904973, 50.3405117 ], [ 30.5845642, 50.3440523 ], [ 30.5798475, 50.3492978 ], [ 30.5850202, 50.3508638 ], [ 30.5888913, 50.344314 ], [ 30.6019543, 50.3414027 ], [ 30.5973089, 50.3470101 ], [ 30.5885077, 50.3514218 ], [ 30.5816028, 50.351849 ], [ 30.5795941, 50.3500612 ], [ 30.5772022, 50.35141010000001 ], [ 30.5713302, 50.3576134 ], [ 30.5733767, 50.3562966 ], [ 30.5707911, 50.3592391 ] ], [ [ 30.5751336, 50.3561109 ], [ 30.5751111, 50.3546507 ], [ 30.5777702, 50.3525103 ], [ 30.5751336, 50.3561109 ] ], [ [ 30.5808574, 50.354462899999987 ], [ 30.5798489, 50.354706 ], [ 30.5798301, 50.35440650000001 ], [ 30.5808574, 50.354462899999987 ] ], [ [ 30.5854762, 50.3534909 ], [ 30.5819088, 50.3582842 ], [ 30.5811578, 50.3553597 ], [ 30.5854762, 50.3534909 ] ], [ [ 30.578839, 50.3565182 ], [ 30.5790523, 50.356182799999985 ], [ 30.5791535, 50.356207 ], [ 30.578839, 50.3565182 ] ], [ [ 30.5727786, 50.3601768 ], [ 30.5721831, 50.3588421 ], [ 30.574345, 50.356858799999983 ], [ 30.5739695, 50.3586641 ], [ 30.5727786, 50.3601768 ] ], [ [ 30.5721516, 50.360368 ], [ 30.5719391, 50.3601751 ], [ 30.5721536, 50.360179799999983 ], [ 30.5721516, 50.360368 ] ], [ [ 30.5757759, 50.3609511 ], [ 30.5760026, 50.3600947 ], [ 30.5764653, 50.3602649 ], [ 30.5757759, 50.3609511 ] ], [ [ 30.5780207, 50.363974 ], [ 30.5778923, 50.3639255 ], [ 30.5779965, 50.3639073 ], [ 30.5780207, 50.363974 ] ] ] } },
{ "type": "Feature", "properties": { "element": "relation", "id": 1646115 }, "geometry": { "type": "Polygon", "coordinates": [ [ [ 30.5910364, 50.3224551 ], [ 30.5921311, 50.331213 ], [ 30.5937079, 50.3335491 ], [ 30.6023245, 50.3373986 ], [ 30.6063169, 50.3360898 ], [ 30.6087295, 50.3336637 ], [ 30.6036884, 50.3313884 ], [ 30.6036213, 50.3302053 ], [ 30.6106232, 50.332463599999983 ], [ 30.6073737, 50.3271215 ], [ 30.6116974, 50.3279434 ], [ 30.6117403, 50.3249998 ], [ 30.614334, 50.3269973 ], [ 30.6138392, 50.3243722 ], [ 30.6190789, 50.323650399999984 ], [ 30.6211911, 50.3200267 ], [ 30.6320152, 50.3195386 ], [ 30.652029, 50.297288 ], [ 30.6404541, 50.2921718 ], [ 30.6343313, 50.296741 ], [ 30.6274688, 50.2962175 ], [ 30.6118031, 50.3000487 ], [ 30.610009, 50.3033783 ], [ 30.6148356, 50.3013764 ], [ 30.6158334, 50.3014818 ], [ 30.611397, 50.3053082 ], [ 30.5981845, 50.3108755 ], [ 30.5943811, 50.31394670000001 ], [ 30.5885687, 50.323503199999983 ], [ 30.5910364, 50.3224551 ] ], [ [ 30.6099124, 50.3108721 ], [ 30.6105339, 50.3101702 ], [ 30.6102705, 50.3109423 ], [ 30.6099124, 50.3108721 ] ], [ [ 30.5990709, 50.3119011 ], [ 30.5982247, 50.3119619 ], [ 30.5987209, 50.3115615 ], [ 30.5990709, 50.3119011 ] ], [ [ 30.5980436, 50.3124548 ], [ 30.5983736, 50.3126072 ], [ 30.5978626, 50.3127768 ], [ 30.5980436, 50.3124548 ] ], [ [ 30.6096214, 50.3128984 ], [ 30.6094015, 50.313175 ], [ 30.6093988, 50.312852199999988 ], [ 30.6096214, 50.3128984 ] ], [ [ 30.5972759, 50.3131652 ], [ 30.5972169, 50.3132829 ], [ 30.5971686, 50.3131857 ], [ 30.5972759, 50.3131652 ] ], [ [ 30.6090248, 50.317499 ], [ 30.60879, 50.3174836 ], [ 30.6089523, 50.3174042 ], [ 30.6090248, 50.317499 ] ], [ [ 30.6053201, 50.3194899 ], [ 30.6049647, 50.319606799999988 ], [ 30.6051662, 50.3194735 ], [ 30.6053201, 50.3194899 ] ], [ [ 30.5984205, 50.32316070000001 ], [ 30.596256, 50.3211879 ], [ 30.5955237, 50.32045320000001 ], [ 30.5984205, 50.32316070000001 ] ], [ [ 30.5951026, 50.3220904 ], [ 30.5953386, 50.322152 ], [ 30.5953353, 50.322182 ], [ 30.5951026, 50.3220904 ] ], [ [ 30.5951321, 50.3314637 ], [ 30.5947536, 50.3284716 ], [ 30.5972444, 50.328356 ], [ 30.5962801, 50.3307754 ], [ 30.6004818, 50.324195799999984 ], [ 30.5948585, 50.3185042 ], [ 30.595049, 50.3148673 ], [ 30.5981845, 50.3120848 ], [ 30.5970365, 50.313143299999986 ], [ 30.5960226, 50.3146677 ], [ 30.5952314, 50.3170096 ], [ 30.5953142, 50.317901800000016 ], [ 30.5985546, 50.31315020000001 ], [ 30.6011295, 50.3118039 ], [ 30.6073536, 50.3100678 ], [ 30.6011953, 50.3136282 ], [ 30.6055605, 50.3119752 ], [ 30.6039029, 50.3205217 ], [ 30.6001559, 50.320975499999989 ], [ 30.6036313, 50.3211663 ], [ 30.6053969, 50.3196859 ], [ 30.6056169, 50.3174886 ], [ 30.6061614, 50.3224363 ], [ 30.6038815, 50.3250426 ], [ 30.6072021, 50.322717099999984 ], [ 30.6075923, 50.3264357 ], [ 30.6049007, 50.3273235 ], [ 30.6002846, 50.3341501 ], [ 30.5951321, 50.3314637 ] ], [ [ 30.5944059, 50.322904 ], [ 30.5946533, 50.3232775 ], [ 30.5943312, 50.3231311 ], [ 30.5944059, 50.322904 ] ], [ [ 30.5941392, 50.3231907 ], [ 30.5941392, 50.3235486 ], [ 30.5938428, 50.3236124 ], [ 30.5941392, 50.3231907 ] ], [ [ 30.5930427, 50.3292105 ], [ 30.5933726, 50.3263475 ], [ 30.595922, 50.3243191 ], [ 30.5940726, 50.3225844 ], [ 30.5925022, 50.3249716 ], [ 30.5912952, 50.3193742 ], [ 30.5932009, 50.3172788 ], [ 30.5946708, 50.3213231 ], [ 30.5924968, 50.321392499999988 ], [ 30.5988604, 50.32400830000001 ], [ 30.5930427, 50.3292105 ] ], [ [ 30.5942088, 50.3242314 ], [ 30.5940633, 50.3244005 ], [ 30.5940311, 50.324293 ], [ 30.5942088, 50.3242314 ] ], [ [ 30.6083326, 50.3262687 ], [ 30.6079343, 50.3266711 ], [ 30.6079383, 50.3263055 ], [ 30.6083326, 50.3262687 ] ], [ [ 30.6069419, 50.3276625 ], [ 30.6061882, 50.3280238 ], [ 30.6068775, 50.3273518 ], [ 30.6069419, 50.3276625 ] ], [ [ 30.6071457, 50.3278021 ], [ 30.607591, 50.328636 ], [ 30.6066126, 50.3282212 ], [ 30.6071457, 50.3278021 ] ], [ [ 30.605177, 50.3289776 ], [ 30.6068909, 50.3290786 ], [ 30.605118, 50.3292156 ], [ 30.605177, 50.3289776 ] ], [ [ 30.6096677, 50.3310977 ], [ 30.6095134, 50.3312172 ], [ 30.6094551, 50.3311286 ], [ 30.6096677, 50.3310977 ] ], [ [ 30.6433166, 50.2950201 ], [ 30.6412379, 50.2971154 ], [ 30.6420405, 50.2937474 ], [ 30.6433166, 50.2950201 ] ], [ [ 30.6380206, 50.3018476 ], [ 30.6382272, 50.302456599999985 ], [ 30.6380287, 50.3026297 ], [ 30.6380206, 50.3018476 ] ], [ [ 30.6227594, 50.3027845 ], [ 30.6229145, 50.302781 ], [ 30.6227455, 50.3028518 ], [ 30.6227594, 50.3027845 ] ], [ [ 30.614322, 50.3030442 ], [ 30.6142115, 50.303085 ], [ 30.6142385, 50.3029925 ], [ 30.614322, 50.3030442 ] ], [ [ 30.614236, 50.3031038 ], [ 30.6141673, 50.303373499999985 ], [ 30.6138801, 50.3033453 ], [ 30.614236, 50.3031038 ] ], [ [ 30.6133817, 50.3036025 ], [ 30.6136075, 50.3036871 ], [ 30.6133571, 50.3037107 ], [ 30.6133817, 50.3036025 ] ], [ [ 30.6138021, 50.3041066 ], [ 30.6137972, 50.304148899999987 ], [ 30.6137579, 50.3041113 ], [ 30.6138021, 50.3041066 ] ], [ [ 30.6131785, 50.3041348 ], [ 30.6133774, 50.3041975 ], [ 30.6130631, 50.304263399999989 ], [ 30.6131785, 50.3041348 ] ], [ [ 30.6138886, 50.3042599 ], [ 30.6128568, 50.3046813 ], [ 30.6125767, 50.3045833 ], [ 30.6138886, 50.3042599 ] ], [ [ 30.6239042, 50.3136495 ], [ 30.6153278, 50.3116309 ], [ 30.6154069, 50.3122544 ], [ 30.6108955, 50.30978180000001 ], [ 30.610477, 50.3099 ], [ 30.6098507, 50.3096045 ], [ 30.6090353, 50.3096396 ], [ 30.6138271, 50.3073262 ], [ 30.6149925, 50.308801099999982 ], [ 30.6212407, 50.3004598 ], [ 30.6280428, 50.2991097 ], [ 30.6212662, 50.3011974 ], [ 30.6216753, 50.3035968 ], [ 30.6270075, 50.3017568 ], [ 30.6275587, 50.3054769 ], [ 30.629058, 50.3058238 ], [ 30.6300759, 50.302434299999987 ], [ 30.6380796, 50.3031393 ], [ 30.6239042, 50.3136495 ] ], [ [ 30.6102249, 50.3098169 ], [ 30.6098226, 50.3097544 ], [ 30.6098118, 50.3096876 ], [ 30.6102249, 50.3098169 ] ], [ [ 30.6105804, 50.3107287 ], [ 30.6108941, 50.3106554 ], [ 30.6105937, 50.3107583 ], [ 30.6105804, 50.3107287 ] ], [ [ 30.6167145, 50.3124719 ], [ 30.6170055, 50.3123563 ], [ 30.617086, 50.3124591 ], [ 30.6167145, 50.3124719 ] ], [ [ 30.6067192, 50.3214088 ], [ 30.6066277, 50.31772560000001 ], [ 30.6096563, 50.3180093 ], [ 30.6091037, 50.3172505 ], [ 30.6063464, 50.3169166 ], [ 30.6069633, 50.3112678 ], [ 30.6079423, 50.3107864 ], [ 30.6064993, 50.3158495 ], [ 30.6073952, 50.3170228 ], [ 30.6103617, 50.3162383 ], [ 30.6108398, 50.3107513 ], [ 30.6155303, 50.3148887 ], [ 30.6168768, 50.31349190000001 ], [ 30.6135522, 50.312184099999989 ], [ 30.6206292, 50.3133626 ], [ 30.6067192, 50.3214088 ] ], [ [ 30.6213547, 50.3199334 ], [ 30.6215733, 50.3181617 ], [ 30.6223834, 50.3176924 ], [ 30.6213547, 50.3199334 ] ], [ [ 30.6139196, 50.3189829 ], [ 30.6136333, 50.3192912 ], [ 30.6135569, 50.3193109 ], [ 30.6139196, 50.3189829 ] ], [ [ 30.610406, 50.3231765 ], [ 30.6103094, 50.3237994 ], [ 30.6102504, 50.3231324 ], [ 30.610406, 50.3231765 ] ] ] } },
{ "type": "Feature", "properties": { "element": "relation", "id": 9087319 }, "geometry": { "type": "Polygon", "coordinates": [ [ [ 30.6245868, 50.2663861 ], [ 30.6263953, 50.269487 ], [ 30.6267554, 50.2662082 ], [ 30.6291781, 50.2678741 ], [ 30.628767, 50.2647766 ], [ 30.6324031, 50.2671375 ], [ 30.6306466, 50.2636509 ], [ 30.6359738, 50.2641685 ], [ 30.6362963, 50.2665084 ], [ 30.6366306, 50.2644924 ], [ 30.6393363, 50.2662624 ], [ 30.641014, 50.2648207 ], [ 30.6397547, 50.262803 ], [ 30.6432104, 50.2637479 ], [ 30.6425214, 50.2678357 ], [ 30.6392833, 50.2663897 ], [ 30.642058, 50.268164 ], [ 30.6402516, 50.269955599999989 ], [ 30.6363329, 50.266696 ], [ 30.6323411, 50.2673484 ], [ 30.6399136, 50.2701973 ], [ 30.6376335, 50.273481 ], [ 30.6416709, 50.2790426 ], [ 30.6360526, 50.2790277 ], [ 30.6409838, 50.280231 ], [ 30.6387978, 50.2823816 ], [ 30.6360106, 50.2814068 ], [ 30.6386134, 50.2836053 ], [ 30.635569, 50.2848325 ], [ 30.641478, 50.2860986 ], [ 30.6404541, 50.2921718 ], [ 30.652029, 50.297288 ], [ 30.6642045, 50.2936361 ], [ 30.663515, 50.2923296 ], [ 30.65332, 50.295167199999987 ], [ 30.6610135, 50.2869927 ], [ 30.6649592, 50.292040299999989 ], [ 30.6692523, 50.2864884 ], [ 30.6732085, 50.2893161 ], [ 30.6743425, 50.289188799999984 ], [ 30.6706054, 50.2855707 ], [ 30.6725112, 50.2841962 ], [ 30.6798753, 50.2847388 ], [ 30.6792665, 50.287153400000015 ], [ 30.6800234, 50.2876415 ], [ 30.6809246, 50.2855981 ], [ 30.6857301, 50.2849676 ], [ 30.6856565, 50.2871386 ], [ 30.6880561, 50.2849596 ], [ 30.6833097, 50.2811814 ], [ 30.6728545, 50.281747 ], [ 30.6730601, 50.2770958 ], [ 30.6709941, 50.274751299999984 ], [ 30.6602186, 50.272121199999987 ], [ 30.6618896, 50.2682562 ], [ 30.6643116, 50.26974 ], [ 30.6653537, 50.2642562 ], [ 30.6520405, 50.2591713 ], [ 30.6496735, 50.2617545 ], [ 30.6526823, 50.2649784 ], [ 30.651315, 50.266390799999989 ], [ 30.6474214, 50.2607223 ], [ 30.6452633, 50.260999399999989 ], [ 30.6468873, 50.2661667 ], [ 30.643271, 50.2617839 ], [ 30.6377277, 50.2610071 ], [ 30.6368271, 50.263485499999987 ], [ 30.6335172, 50.2612838 ], [ 30.6239779, 50.2660316 ], [ 30.6200659, 50.264612 ], [ 30.6184693, 50.2648863 ], [ 30.62008, 50.2670646 ], [ 30.6245868, 50.2663861 ] ], [ [ 30.6512691, 50.2605583 ], [ 30.6568279, 50.2622373 ], [ 30.6531687, 50.2646347 ], [ 30.6503226, 50.26215830000001 ], [ 30.6512691, 50.2605583 ] ], [ [ 30.619592, 50.2657261 ], [ 30.6206077, 50.2652129 ], [ 30.6220249, 50.266484 ], [ 30.619592, 50.2657261 ] ], [ [ 30.6500249, 50.2666703 ], [ 30.6491491, 50.2680217 ], [ 30.6472639, 50.266483799999989 ], [ 30.6500249, 50.2666703 ] ], [ [ 30.6474526, 50.2675841 ], [ 30.6475894, 50.2672549 ], [ 30.6478603, 50.2673518 ], [ 30.6474526, 50.2675841 ] ], [ [ 30.6463036, 50.2684673 ], [ 30.6458099, 50.2685344 ], [ 30.6459197, 50.2683847 ], [ 30.6463036, 50.2684673 ] ], [ [ 30.6471257, 50.2697196 ], [ 30.6462315, 50.269189 ], [ 30.647002, 50.2689655 ], [ 30.6471257, 50.2697196 ] ], [ [ 30.643953, 50.2729231 ], [ 30.6478583, 50.269662 ], [ 30.6452552, 50.2742204 ], [ 30.643953, 50.2729231 ] ], [ [ 30.6442943, 50.2768191 ], [ 30.6406639, 50.276216 ], [ 30.6408812, 50.2749961 ], [ 30.6452975, 50.2747621 ], [ 30.6442943, 50.2768191 ] ], [ [ 30.6442018, 50.2778973 ], [ 30.6436258, 50.2786168 ], [ 30.6426126, 50.2770411 ], [ 30.6442018, 50.2778973 ] ], [ [ 30.6416416, 50.2825843 ], [ 30.640448, 50.2834202 ], [ 30.6406512, 50.2823141 ], [ 30.6416416, 50.2825843 ] ], [ [ 30.6620137, 50.2670599 ], [ 30.6617964, 50.2673846 ], [ 30.6619218, 50.2670089 ], [ 30.6620137, 50.2670599 ] ], [ [ 30.660181, 50.271680699999983 ], [ 30.6593469, 50.2712645 ], [ 30.6594032, 50.2711522 ], [ 30.660181, 50.271680699999983 ] ], [ [ 30.6592181, 50.2731078 ], [ 30.6647294, 50.2739598 ], [ 30.6577201, 50.273718100000011 ], [ 30.6592181, 50.2731078 ] ], [ [ 30.6717721, 50.2780231 ], [ 30.6530705, 50.2868475 ], [ 30.6515121, 50.2893632 ], [ 30.649216, 50.2877684 ], [ 30.6486382, 50.2804202 ], [ 30.6561945, 50.2685382 ], [ 30.6549279, 50.2771508 ], [ 30.6603936, 50.2760524 ], [ 30.6504849, 50.280540299999984 ], [ 30.6507464, 50.28369270000001 ], [ 30.6600282, 50.2778613 ], [ 30.6654065, 50.280462 ], [ 30.6647741, 50.2757673 ], [ 30.6686119, 50.2753556 ], [ 30.663401, 50.2750136 ], [ 30.6672427, 50.274647 ], [ 30.6697224, 50.2753082 ], [ 30.6717721, 50.2780231 ] ], [ [ 30.6724956, 50.280121099999988 ], [ 30.6716703, 50.2812782 ], [ 30.6722604, 50.2799879 ], [ 30.6724956, 50.280121099999988 ] ], [ [ 30.6816335, 50.2831246 ], [ 30.6781949, 50.2828539 ], [ 30.6823174, 50.2822917 ], [ 30.6816335, 50.2831246 ] ], [ [ 30.6825373, 50.284263 ], [ 30.6810097, 50.2838903 ], [ 30.6834921, 50.283832 ], [ 30.6825373, 50.284263 ] ], [ [ 30.6628713, 50.2853136 ], [ 30.6683134, 50.2828498 ], [ 30.6694373, 50.2826297 ], [ 30.6700992, 50.2828259 ], [ 30.6661516, 50.2862545 ], [ 30.6628713, 50.2853136 ] ], [ [ 30.6698263, 50.286320899999986 ], [ 30.669723, 50.2864456 ], [ 30.6696063, 50.2863957 ], [ 30.6698263, 50.286320899999986 ] ] ] } }
]
}
